[{"OBJECT_NAME":"STARLINK-31741","OBJECT_ID":"2024-074S","EPOCH":"2026-03-09T03:19:28.512480","MEAN_MOTION":15.27586163,"ECCENTRICITY":0.00017149,"INCLINATION":43.0023,"RA_OF_ASC_NODE":346.3262,"ARG_OF_PERICENTER":275.1195,"MEAN_ANOMALY":84.9461,"EPHEMERIS_TYPE":0,"CLASSIFICATION_TYPE":"U","NORAD_CAT_ID":59550,"ELEMENT_SET_NO":999,"REV_AT_EPOCH":10593,"BSTAR":0.00012593429,"MEAN_MOTION_DOT":3.205e-5,"MEAN_MOTION_DDOT":0},{"OBJECT_NAME":"OBJECT J","OBJECT_ID":"2025-155J","EPOCH":"2026-03-09T22:09:22.347648","MEAN_MOTION":15.2758258,"ECCENTRICITY":0.00088188,"INCLINATION":97.4475,"RA_OF_ASC_NODE":37.3123,"ARG_OF_PERICENTER":150.071,"MEAN_ANOMALY":210.1035,"EPHEMERIS_TYPE":0,"CLASSIFICATION_TYPE":"U","NORAD_CAT_ID":64884,"ELEMENT_SET_NO":999,"REV_AT_EPOCH":6559,"BSTAR":0.00051444498,"MEAN_MOTION_DOT":0.00013827,"MEAN_MOTION_DDOT":0}]
